STARLINK-2319           
1 47790U 21018D   26068.63682306  .00000665  00000+0  34593-4 0  9999
2 47790  53.1599 216.9503 0001262 122.8406 237.2717 15.30195970277095
TEVEL2-3                
1 63218U 25052J   26068.64540225  .00020365  00000+0  69446-3 0  9991
2 63218  97.3994 324.7775 0004761 105.7353 254.4413 15.30377031 54855
